STARLINK-38067          
1 69747U 26150J   26196.53589441  .00180789  00000+0  11865-2 0  9995
2 69747  97.2834  34.8963 0001119  20.4120 339.7190 15.75208991  3374
STARLINK-37988          
1 69748U 26150K   26196.78823727  .00194219  00000+0  12694-2 0  9995
2 69748  97.2832  35.1651 0000953  76.9799 283.1572 15.75266022  3414
STARLINK-37987          
1 69749U 26150L   26196.83335647 -.00126325  00000+0 -85712-3 0  9998
2 69749  97.2839  35.2235 0001275  89.5653 190.2473 15.75230816  3407
STARLINK-38037          
1 69750U 26150M   26196.51553733  .00146983  00000+0  75374-3 0  9996
2 69750  97.2826  34.9249 0001011  80.7861 279.3522 15.80859532  3376
STARLINK-38049          
1 69751U 26150N   26196.51451947  .00151710  00000+0  77739-3 0  9992
2 69751  97.2834  34.9277 0000836  61.2439 298.8913 15.80863571  3374
STARLINK-38029          
1 69752U 26150P   26196.83335647 -.00220615  00000+0 -15091-2 0  9991
2 69752  97.2840  35.2652 0000950 103.5817 270.1691 15.75306648  3401
STARLINK-37965          
1 69753U 26150Q   26196.83335647 -.00072061  00000+0 -48619-3 0  9995
2 69753  97.2838  35.2482 0001391  98.7770 237.0388 15.75196706  3400
STARLINK-38048          
1 69754U 26150R   26196.50839996  .00260492  00000+0  13138-2 0  9998
2 69754  97.2830  34.9357 0001201 113.3846 246.7549 15.80926723  3376
STARLINK-38006          
1 69755U 26150S   26196.83335647 -.00203245  00000+0 -13873-2 0  9990
2 69755  97.2839  35.2705 0000618 119.2375 268.4893 15.75309997  3409
STARLINK-38036          
1 69756U 26150T   26196.83335647 -.01776472  00000+0 -12630-1 0  9998
2 69756  97.2844  35.2869 0001586  82.6241 342.0492 15.76761156  3401
STARLINK-38058          
1 69757U 26150U   26196.33335648 -.00039126  00000+0 -20422-3 0  9992
2 69757  97.2831  34.7635 0001424  94.6709  14.7033 15.80839101  3322
STARLINK-38066          
1 69758U 26150V   26196.33335648 -.00025046  00000+0 -13031-3 0  9997
2 69758  97.2834  34.7635 0001516  83.1509  27.0771 15.80829398  3322
STARLINK-38035          
1 69759U 26150W   26196.50377880  .00292986  00000+0  14711-2 0  9993
2 69759  97.2831  34.9423 0001276  99.7188 260.4225 15.80941446  3377
STARLINK-38056          
1 69760U 26150X   26196.50030459  .00179811  00000+0  91637-3 0  9997
2 69760  97.2833  34.9472 0001463 106.7473 253.3956 15.80908796  3372
STARLINK-38069          
1 69761U 26150Y   26196.49686133  .00265606  00000+0  13386-2 0  9994
2 69761  97.2833  34.9521 0001427 100.2557 259.8872 15.80929921  3371
STARLINK-38019          
1 69762U 26150Z   26196.83335647 -.00075848  00000+0 -51196-3 0  9995
2 69762  97.2832  35.2730 0000769  83.6015 308.2031 15.75200318  3404
KUIPER-00258            
1 69763U 26151A   26196.65757250 -.00004067  00000+0 -10525-3 0  9991
2 69763  51.8670 178.3277 0011821 169.8833 190.2393 15.35362446  2082
KUIPER-00526            
1 69764U 26151B   26196.57709770  .00011114  00000+0  30919-3 0  9995
2 69764  51.8753 178.5459 0006015 140.0223 220.1207 15.37322286  2078
KUIPER-00558            
1 69765U 26151C   26196.58131640 -.00140750  00000+0 -39426-2 0  9994
2 69765  51.8745 178.5740 0006458 145.4919 214.6487 15.36555616  2077
KUIPER-00569            
1 69766U 26151D   26196.44556080  .00006981  00000+0  19737-3 0  9998
2 69766  51.8776 179.1642 0005092 137.9006 222.2373 15.37466891  2050
KUIPER-00589            
1 69767U 26151E   26196.64127705  .00013304  00000+0  36687-3 0  9999
2 69767  51.8750 178.2277 0005074 146.3494 213.7816 15.37415440  2086
KUIPER-00598            
1 69768U 26151F   26196.65725985 -.00029047  00000+0 -83567-3 0  9997
2 69768  51.8672 178.3267 0011070 164.4157 195.7171 15.34895048  2086
KUIPER-00604            
1 69769U 26151G   26196.56915286  .00008558  00000+0  23371-3 0  9992
2 69769  51.8790 178.4911 0002725 108.4024 251.7259 15.38236229  2076
KUIPER-00609            
1 69770U 26151H   26196.43565036  .00013667  00000+0  36207-3 0  9993
2 69770  51.8792 179.0967 0001155  58.4321 301.6779 15.38638316  2051
KUIPER-00611            
1 69771U 26151J   26196.56731536  .00008760  00000+0  23734-3 0  9997
2 69771  51.8795 178.4750 0001647 103.5365 256.5806 15.38449171  2074
KUIPER-00612            
1 69772U 26151K   26196.57171550  .00009069  00000+0  24940-3 0  9996
2 69772  51.8783 178.5094 0003732 117.0263 243.1106 15.37939327  2079
KUIPER-00614            
1 69773U 26151L   26196.56989413  .00008304  00000+0  22772-3 0  9993
2 69773  51.8794 178.4953 0002699 123.2384 236.8862 15.38149504  2078
KUIPER-00615            
1 69774U 26151M   26196.44785266  .00010575  00000+0  29560-3 0  9996
2 69774  51.8764 179.1791 0006172 149.2417 210.8932 15.37229835  2052
KUIPER-00616            
1 69775U 26151N   26196.56848332  .00009539  00000+0  25797-3 0  9990
2 69775  51.8776 178.4908 0003097 122.2284 237.9003 15.38393428  2076
KUIPER-00617            
1 69776U 26151P   26196.57284051  .00013764  00000+0  37470-3 0  9990
2 69776  51.8787 178.5159 0004112 138.0456 222.0846 15.37785877  2075
